CCSDS_OMM_VERS = 2.0
CREATION_DATE  = 
ORIGINATOR     = 

OBJECT_NAME    = SL-14 R/B
OBJECT_ID      = 1986-046B
CENTER_NAME    = EARTH
REF_FRAME      = TEME
TIME_SYSTEM    = UTC
MEAN_ELEMENT_THEORY = SGP/SGP4

EPOCH          = 2025-12-06T14:02:04.464960
MEAN_MOTION    = 14.85474728
ECCENTRICITY   = .00232684
INCLINATION    = 82.4812
RA_OF_ASC_NODE = 168.1270
ARG_OF_PERICENTER = 172.2046
MEAN_ANOMALY   = 187.9537

EPHEMERIS_TYPE = 0
CLASSIFICATION_TYPE = U
NORAD_CAT_ID   = 16792
ELEMENT_SET_NO = 999
REV_AT_EPOCH   = 11258
BSTAR          = .10541319E-3
MEAN_MOTION_DOT = .937E-5
MEAN_MOTION_DDOT = 0

CCSDS_OMM_VERS = 2.0
CREATION_DATE  = 
ORIGINATOR     = 

OBJECT_NAME    = SL-14 R/B
OBJECT_ID      = 1986-055B
CENTER_NAME    = EARTH
REF_FRAME      = TEME
TIME_SYSTEM    = UTC
MEAN_ELEMENT_THEORY = SGP/SGP4

EPOCH          = 2025-12-06T15:35:26.962368
MEAN_MOTION    = 14.85522180
ECCENTRICITY   = .00175119
INCLINATION    = 82.5211
RA_OF_ASC_NODE = 214.0950
ARG_OF_PERICENTER = 281.3466
MEAN_ANOMALY   = 134.8283

EPHEMERIS_TYPE = 0
CLASSIFICATION_TYPE = U
NORAD_CAT_ID   = 16882
ELEMENT_SET_NO = 999
REV_AT_EPOCH   = 10555
BSTAR          = .10345616E-3
MEAN_MOTION_DOT = .919E-5
MEAN_MOTION_DDOT = 0

CCSDS_OMM_VERS = 2.0
CREATION_DATE  = 
ORIGINATOR     = 

OBJECT_NAME    = AJISAI (EGS)
OBJECT_ID      = 1986-061A
CENTER_NAME    = EARTH
REF_FRAME      = TEME
TIME_SYSTEM    = UTC
MEAN_ELEMENT_THEORY = SGP/SGP4

EPOCH          = 2025-12-06T15:43:27.520032
MEAN_MOTION    = 12.44514208
ECCENTRICITY   = .00112805
INCLINATION    = 50.0114
RA_OF_ASC_NODE = 19.4267
ARG_OF_PERICENTER = 50.6145
MEAN_ANOMALY   = 88.0826

EPHEMERIS_TYPE = 0
CLASSIFICATION_TYPE = U
NORAD_CAT_ID   = 16908
ELEMENT_SET_NO = 999
REV_AT_EPOCH   = 45641
BSTAR          = .15533887E-3
MEAN_MOTION_DOT = -.75E-6
MEAN_MOTION_DDOT = 0

CCSDS_OMM_VERS = 2.0
CREATION_DATE  = 
ORIGINATOR     = 

OBJECT_NAME    = COSMOS 1812
OBJECT_ID      = 1987-003A
CENTER_NAME    = EARTH
REF_FRAME      = TEME
TIME_SYSTEM    = UTC
MEAN_ELEMENT_THEORY = SGP/SGP4

EPOCH          = 2025-12-06T15:07:13.040256
MEAN_MOTION    = 15.74006387
ECCENTRICITY   = .00071504
INCLINATION    = 82.4875
RA_OF_ASC_NODE = 298.6220
ARG_OF_PERICENTER = 95.5931
MEAN_ANOMALY   = 264.6149

EPHEMERIS_TYPE = 0
CLASSIFICATION_TYPE = U
NORAD_CAT_ID   = 17295
ELEMENT_SET_NO = 999
REV_AT_EPOCH   = 12969
BSTAR          = .90960783E-3
MEAN_MOTION_DOT = .131074E-2
MEAN_MOTION_DDOT = 0

CCSDS_OMM_VERS = 2.0
CREATION_DATE  = 
ORIGINATOR     = 

OBJECT_NAME    = SL-14 R/B
OBJECT_ID      = 1987-024B
CENTER_NAME    = EARTH
REF_FRAME      = TEME
TIME_SYSTEM    = UTC
MEAN_ELEMENT_THEORY = SGP/SGP4

EPOCH          = 2025-12-06T15:38:47.073408
MEAN_MOTION    = 14.86014785
ECCENTRICITY   = .00175701
INCLINATION    = 82.5280
RA_OF_ASC_NODE = 180.1734
ARG_OF_PERICENTER = 204.8842
MEAN_ANOMALY   = 155.1529

EPHEMERIS_TYPE = 0
CLASSIFICATION_TYPE = U
NORAD_CAT_ID   = 17567
ELEMENT_SET_NO = 999
REV_AT_EPOCH   = 7431
BSTAR          = .98855045E-4
MEAN_MOTION_DOT = .89E-5
MEAN_MOTION_DDOT = 0

CCSDS_OMM_VERS = 2.0
CREATION_DATE  = 
ORIGINATOR     = 

OBJECT_NAME    = COSMOS 1833
OBJECT_ID      = 1987-027A
CENTER_NAME    = EARTH
REF_FRAME      = TEME
TIME_SYSTEM    = UTC
MEAN_ELEMENT_THEORY = SGP/SGP4

EPOCH          = 2025-12-06T15:06:49.726944
MEAN_MOTION    = 14.13019393
ECCENTRICITY   = .00222716
INCLINATION    = 70.9133
RA_OF_ASC_NODE = 161.6219
ARG_OF_PERICENTER = 340.2958
MEAN_ANOMALY   = 19.7300

EPHEMERIS_TYPE = 0
CLASSIFICATION_TYPE = U
NORAD_CAT_ID   = 17589
ELEMENT_SET_NO = 999
REV_AT_EPOCH   = 99716
BSTAR          = .67298581E-4
MEAN_MOTION_DOT = .78E-6
MEAN_MOTION_DDOT = 0

CCSDS_OMM_VERS = 2.0
CREATION_DATE  = 
ORIGINATOR     = 

OBJECT_NAME    = SL-16 R/B
OBJECT_ID      = 1987-027B
CENTER_NAME    = EARTH
REF_FRAME      = TEME
TIME_SYSTEM    = UTC
MEAN_ELEMENT_THEORY = SGP/SGP4

EPOCH          = 2025-12-06T15:52:37.562304
MEAN_MOTION    = 14.17152440
ECCENTRICITY   = .00075117
INCLINATION    = 71.0025
RA_OF_ASC_NODE = 112.5255
ARG_OF_PERICENTER = 266.0564
MEAN_ANOMALY   = 93.9701

EPHEMERIS_TYPE = 0
CLASSIFICATION_TYPE = U
NORAD_CAT_ID   = 17590
ELEMENT_SET_NO = 999
REV_AT_EPOCH   = 216
BSTAR          = -.29957077E-4
MEAN_MOTION_DOT = -.108E-5
MEAN_MOTION_DDOT = 0

CCSDS_OMM_VERS = 2.0
CREATION_DATE  = 
ORIGINATOR     = 

OBJECT_NAME    = SL-14 R/B
OBJECT_ID      = 1987-038B
CENTER_NAME    = EARTH
REF_FRAME      = TEME
TIME_SYSTEM    = UTC
MEAN_ELEMENT_THEORY = SGP/SGP4

EPOCH          = 2025-12-06T14:22:43.853952
MEAN_MOTION    = 14.85253094
ECCENTRICITY   = .00207804
INCLINATION    = 82.5022
RA_OF_ASC_NODE = 24.4846
ARG_OF_PERICENTER = 110.9246
MEAN_ANOMALY   = 249.4196

EPHEMERIS_TYPE = 0
CLASSIFICATION_TYPE = U
NORAD_CAT_ID   = 17912
ELEMENT_SET_NO = 999
REV_AT_EPOCH   = 6541
BSTAR          = .99079988E-4
MEAN_MOTION_DOT = .877E-5
MEAN_MOTION_DDOT = 0

CCSDS_OMM_VERS = 2.0
CREATION_DATE  = 
ORIGINATOR     = 

OBJECT_NAME    = COSMOS 1844
OBJECT_ID      = 1987-041A
CENTER_NAME    = EARTH
REF_FRAME      = TEME
TIME_SYSTEM    = UTC
MEAN_ELEMENT_THEORY = SGP/SGP4

EPOCH          = 2025-12-06T09:49:57.825120
MEAN_MOTION    = 14.14527099
ECCENTRICITY   = .00302548
INCLINATION    = 70.8986
RA_OF_ASC_NODE = 230.9220
ARG_OF_PERICENTER = 167.3032
MEAN_ANOMALY   = 192.8859

EPHEMERIS_TYPE = 0
CLASSIFICATION_TYPE = U
NORAD_CAT_ID   = 17973
ELEMENT_SET_NO = 999
REV_AT_EPOCH   = 99039
BSTAR          = -.34261264E-4
MEAN_MOTION_DOT = -.114E-5
MEAN_MOTION_DDOT = 0

CCSDS_OMM_VERS = 2.0
CREATION_DATE  = 
ORIGINATOR     = 

OBJECT_NAME    = SL-14 R/B
OBJECT_ID      = 1987-055B
CENTER_NAME    = EARTH
REF_FRAME      = TEME
TIME_SYSTEM    = UTC
MEAN_ELEMENT_THEORY = SGP/SGP4

EPOCH          = 2025-12-06T06:07:36.471072
MEAN_MOTION    = 14.85511000
ECCENTRICITY   = .00198244
INCLINATION    = 82.5000
RA_OF_ASC_NODE = 77.0991
ARG_OF_PERICENTER = 325.9234
MEAN_ANOMALY   = 34.0707

EPHEMERIS_TYPE = 0
CLASSIFICATION_TYPE = U
NORAD_CAT_ID   = 18153
ELEMENT_SET_NO = 999
REV_AT_EPOCH   = 5606
BSTAR          = .11377388E-3
MEAN_MOTION_DOT = .1009E-4
MEAN_MOTION_DDOT = 0

CCSDS_OMM_VERS = 2.0
CREATION_DATE  = 
ORIGINATOR     = 

OBJECT_NAME    = COSMOS 1867
OBJECT_ID      = 1987-060A
CENTER_NAME    = EARTH
REF_FRAME      = TEME
TIME_SYSTEM    = UTC
MEAN_ELEMENT_THEORY = SGP/SGP4

EPOCH          = 2025-12-06T09:14:33.563616
MEAN_MOTION    = 14.31484695
ECCENTRICITY   = .00136444
INCLINATION    = 65.0098
RA_OF_ASC_NODE = 207.9982
ARG_OF_PERICENTER = 270.4975
MEAN_ANOMALY   = 89.4546

EPHEMERIS_TYPE = 0
CLASSIFICATION_TYPE = U
NORAD_CAT_ID   = 18187
ELEMENT_SET_NO = 999
REV_AT_EPOCH   = 658
BSTAR          = .53836681E-4
MEAN_MOTION_DOT = .43E-6
MEAN_MOTION_DDOT = 0

CCSDS_OMM_VERS = 2.0
CREATION_DATE  = 
ORIGINATOR     = 

OBJECT_NAME    = SL-14 R/B
OBJECT_ID      = 1988-001B
CENTER_NAME    = EARTH
REF_FRAME      = TEME
TIME_SYSTEM    = UTC
MEAN_ELEMENT_THEORY = SGP/SGP4

EPOCH          = 2025-12-06T13:56:59.116992
MEAN_MOTION    = 14.85413874
ECCENTRICITY   = .00179105
INCLINATION    = 82.5127
RA_OF_ASC_NODE = 282.9398
ARG_OF_PERICENTER = 181.2747
MEAN_ANOMALY   = 178.8427

EPHEMERIS_TYPE = 0
CLASSIFICATION_TYPE = U
NORAD_CAT_ID   = 18749
ELEMENT_SET_NO = 999
REV_AT_EPOCH   = 2820
BSTAR          = .11289416E-3
MEAN_MOTION_DOT = .999E-5
MEAN_MOTION_DDOT = 0

