SL-14 R/B               
1 16792U 86046B   25340.58477390  .00000937  00000+0  10541-3 0  9998
2 16792  82.4812 168.1270 0023268 172.2046 187.9537 14.85474728112587
SL-14 R/B               
1 16882U 86055B   25340.64961762  .00000919  00000+0  10346-3 0  9999
2 16882  82.5211 214.0950 0017511 281.3466 134.8283 14.85522180105553
AJISAI (EGS)            
1 16908U 86061A   25340.65517963 -.00000075  00000+0  15534-3 0  9994
2 16908  50.0114  19.4267 0011280  50.6145  88.0826 12.44514208456412
COSMOS 1812             
1 17295U 87003A   25340.63001204  .00131074  00000+0  90961-3 0  9995
2 17295  82.4875 298.6220 0007150  95.5931 264.6149 15.74006387129694
SL-14 R/B               
1 17567U 87024B   25340.65193372  .00000890  00000+0  98855-4 0  9992
2 17567  82.5280 180.1734 0017570 204.8842 155.1529 14.86014785 74312
COSMOS 1833             
1 17589U 87027A   25340.62974221  .00000078  00000+0  67299-4 0  9992
2 17589  70.9133 161.6219 0022271 340.2958  19.7300 14.13019393997162
SL-16 R/B               
1 17590U 87027B   25340.66154586 -.00000108  00000+0 -29957-4 0  9997
2 17590  71.0025 112.5255 0007511 266.0564  93.9701 14.17152440  2160
SL-14 R/B               
1 17912U 87038B   25340.59911868  .00000877  00000+0  99080-4 0  9998
2 17912  82.5022  24.4846 0020780 110.9246 249.4196 14.85253094 65411
COSMOS 1844             
1 17973U 87041A   25340.40969705 -.00000114  00000+0 -34261-4 0  9998
2 17973  70.8986 230.9220 0030254 167.3032 192.8859 14.14527099990395
SL-14 R/B               
1 18153U 87055B   25340.25528323  .00001009  00000+0  11377-3 0  9998
2 18153  82.5000  77.0991 0019824 325.9234  34.0707 14.85511000 56063
COSMOS 1867             
1 18187U 87060A   25340.38511069  .00000043  00000+0  53837-4 0  9999
2 18187  65.0098 207.9982 0013644 270.4975  89.4546 14.31484695  6584
SL-14 R/B               
1 18749U 88001B   25340.58123978  .00000999  00000+0  11289-3 0  9993
2 18749  82.5127 282.9398 0017910 181.2747 178.8427 14.85413874 28209
